Identifying_Location,Place,Latitude,Longitude,Postcode,ICAO,PWStation,Missing_Data,Address
Air Itam,Air Itam,5.407842,100.277214,11060,,IAYERI1,,"{'amenity': 'Penang Hill Multi-Storey Car Park', 'road': 'Jalan Stesen Bukit Bendera', 'neighbourhood': 'Hye Keat Estate', 'suburb': 'Air Itam', 'town': 'Air Itam', 'district': 'Timur Laut', 'state': 'Pulau Pinang', 'ISO3166-2-lvl4': 'MY-07', 'postcode': '11060', 'country': 'Malaysia', 'country_code': 'my'}"
Alor Gajah,Machap Umboo,2.370925,102.224592,78000,,,,"{'amenity': 'Sekolah Menengah Kebangsaan Seri Pengkalan', 'road': 'Jalan Machap', 'hamlet': 'Machap Umboo', 'city': 'Alor Gajah', 'district': 'Alor Gajah', 'state': 'Melaka', 'ISO3166-2-lvl4': 'MY-04', 'postcode': '78000', 'country': 'Malaysia', 'country_code': 'my'}"
Alor Setar,Kampung Batin,6.137244,100.346815,5150,,,,"{'amenity': 'Sekolah Menengah Kebangsaan Agama Kedah', 'road': 'Lebuhraya Sultanah Bahiyah', 'neighbourhood': 'Taman Mergong Jaya', 'hamlet': 'Kampung Batin', 'city': 'Alor Setar', 'district': 'Kota Setar', 'state': 'Kedah', 'ISO3166-2-lvl4': 'MY-02', 'postcode': '05150', 'country': 'Malaysia', 'country_code': 'my'}"
Ampang,Ampang Jaya,3.148507,101.770217,68000,,IAMPAN2,,"{'road': 'Jalan Kosas 2', 'neighbourhood': 'Taman Kosas', 'city_district': 'Ampang', 'city': 'Majlis Perbandaran Ampang Jaya', 'district': 'Hulu Langat', 'state': 'Selangor', 'ISO3166-2-lvl4': 'MY-10', 'postcode': '68000', 'country': 'Malaysia', 'country_code': 'my'}"
Ayer Keroh,Ayer Keroh,2.237283,102.274261,75460,,IMALAC2,,"{'neighbourhood': 'Taman Sentosa', 'hamlet': 'Kampung Bukit Beruang', 'town': 'Ayer Keroh', 'municipality': 'Majlis Perbandaran Hang Tuah Jaya', 'district': 'Melaka Tengah', 'state': 'Melaka', 'ISO3166-2-lvl4': 'MY-04', 'postcode': '75460', 'country': 'Malaysia', 'country_code': 'my'}"
Balik Pulau,Balik Pulau,5.337598,100.214721,11020,,,,"{'road': 'Jalan Sungai Nipah 8', 'hamlet': 'Kampung Permatang Tengah', 'village': 'Pondok Upih', 'district': 'Barat Daya', 'state': 'Pulau Pinang', 'ISO3166-2-lvl4': 'MY-07', 'postcode': '11020', 'country': 'Malaysia', 'country_code': 'my'}"
Balok Baru Kuantan,Balok Baru Kuantan,3.960644,103.382158,26080,,,,"{'amenity': 'SK Balok Baru', 'road': 'Jalan Balok Makmur 1', 'neighbourhood': 'Taman Balok Makmur', 'district': 'Kuantan', 'state': 'Pahang', 'ISO3166-2-lvl4': 'MY-06', 'postcode': '26080', 'country': 'Malaysia', 'country_code': 'my'}"
Bandar Sunway,Bandar Sunway,3.08182,101.612679,46150,,IPETAL1,"uv, wind_speed, gust","{'building': 'Leisure Commerce Square', 'road': 'Jalan PJS 8/9', 'quarter': 'SS 10', 'suburb': 'Bandar Sunway', 'city': 'Petaling Jaya', 'district': 'Petaling', 'state': 'Selangor', 'ISO3166-2-lvl4': 'MY-10', 'postcode': '46150', 'country': 'Malaysia', 'country_code': 'my'}"
SMK Tinggi Melaka,Melaka Raya,2.190936,102.257058,75000,,,,"{'amenity': 'SMK Tinggi Melaka', 'road': 'Jalan Bakti 2', 'city': 'Bandaraya Melaka', 'district': 'Melaka Tengah', 'state': 'Melaka', 'ISO3166-2-lvl4': 'MY-04', 'postcode': '75000', 'country': 'Malaysia', 'country_code': 'my'}"
Bangsar,Bangsar,3.139003,101.686855,50566,,IKUALA16,,"{'road': 'Jalan Damansara', 'suburb': 'Bangsar', 'city': 'Kuala Lumpur', 'ISO3166-2-lvl4': 'MY-14', 'postcode': '50566', 'country': 'Malaysia', 'country_code': 'my'}"
Bandaraya Melaka,Taman Bakti,2.19235,102.25777,,,,,
Banting,Bukit Changgang,2.816689,101.623158,,,,,"{'amenity': 'Kolej MARA Banting', 'road': 'Jalan Utama Lebuh Dagang', 'suburb': 'Bukit Changgang', 'city': 'Banting', 'district': 'Kuala Langat', 'state': 'Selangor', 'ISO3166-2-lvl4': 'MY-10', 'country': 'Malaysia', 'country_code': 'my'}"
Batu Muda,Batu Muda,3.212439,101.682228,51100,,,,"{'amenity': 'Sekolah Kebangsaan Batu Muda', 'road': 'Jalan 3/124', 'hamlet': 'Kampung Sri Batu', 'city': 'Kuala Lumpur', 'ISO3166-2-lvl4': 'MY-14', 'postcode': '51100', 'country': 'Malaysia', 'country_code': 'my'}"
Batu Pahat,Batu Pahat,1.919323,102.866618,83500,,,,"{'amenity': 'MRSM Batu Pahat', 'road': 'Jalan Simpang Lima - Parit Sulong', 'city': 'Batu Pahat', 'district': 'Batu Pahat', 'state': 'Johor', 'ISO3166-2-lvl4': 'MY-01', 'postcode': '83500', 'country': 'Malaysia', 'country_code': 'my'}"
Besut,Kampung Jawek,5.748449,102.515632,22000,,,,"{'building': 'Dewan Serbaguna', 'road': 'Jalan Jerteh - Kampung Raja', 'hamlet': 'Kampung Jawek', 'village': 'Kampung Gong Kemuntong', 'district': 'Besut', 'state': 'Terengganu', 'ISO3166-2-lvl4': 'MY-11', 'postcode': '22000', 'country': 'Malaysia', 'country_code': 'my'}"
KAMPUNG RAJA BESUT (MCAQM),Kampung Jawek,5.801160,102.565210,22000,,,,"{'building': 'Dewan Serbaguna', 'road': 'Jalan Jerteh - Kampung Raja', 'hamlet': 'Kampung Jawek', 'village': 'Kampung Gong Kemuntong', 'district': 'Besut', 'state': 'Terengganu', 'ISO3166-2-lvl4': 'MY-11', 'postcode': '22000', 'country': 'Malaysia', 'country_code': 'my'}"
Bintulu,Bintulu,3.177084,113.041091,97000,,,,"{'office': 'PEJABAT DAERAH BINTULU', 'road': 'Jalan Pisang Keling', 'city': 'Bintulu', 'county': 'Bintulu', 'state': 'Sarawak', 'ISO3166-2-lvl4': 'MY-13', 'postcode': '97000', 'country': 'Malaysia', 'country_code': 'my'}"
Bintulu Airport,Bintulu,3.124166667,113.0197222,,WBGB,,,"{'aeroway': 'Lapangan Terbang Bintulu', 'road': 'Jalan Lapangan Terbang Baru Bintulu', 'city': 'Bintulu', 'county': 'Bintulu', 'state': 'Sarawak', 'ISO3166-2-lvl4': 'MY-13', 'country': 'Malaysia', 'country_code': 'my'}"
Jalan Ampang,Bukit Bintang,3.159477,101.712276,50450,,IKUALA6,,"{'building': 'Le Nouvel KLCC', 'house_number': '152', 'road': 'Jalan Ampang', 'suburb': 'Bukit Bintang', 'city': 'Kuala Lumpur', 'ISO3166-2-lvl4': 'MY-14', 'postcode': '50450', 'country': 'Malaysia', 'country_code': 'my'}"
Jalan Galloway,Bukit Bintang,3.142885,101.705437,50150,,IKUALA6,,"{'amenity': 'Sarang Cookery', 'house_number': '8', 'road': 'Jalan Galloway', 'suburb': 'Bukit Bintang', 'city': 'Kuala Lumpur', 'ISO3166-2-lvl4': 'MY-14', 'postcode': '50150', 'country': 'Malaysia', 'country_code': 'my'}"
Bukit Jalil,Bukit Jalil,3.059632,101.651115,47180,,IPUCHO2,,"{'suburb': 'Bukit Jalil', 'city': 'Kuala Lumpur', 'ISO3166-2-lvl4': 'MY-14', 'postcode': '47180', 'country': 'Malaysia', 'country_code': 'my'}"
Bukit Rahman Putra,Sungai Buloh,3.214294,101.557678,47830,,ISELANGO6,"wind_speed, gust","{'road': 'Jalan BRP 2/1B', 'residential': 'Ascott Hill', 'town': 'Sungai Buloh', 'city': 'Shah Alam', 'district': 'Petaling', 'state': 'Selangor', 'ISO3166-2-lvl4': 'MY-10', 'postcode': '47830', 'country': 'Malaysia', 'country_code': 'my'}"
Bukit Rambai,Taman Bukit Rambai,2.258519,102.172683,76400,,,,"{'neighbourhood': 'Taman Bukit Rambai', 'city': 'Bandaraya Melaka', 'district': 'Melaka Tengah', 'state': 'Melaka', 'ISO3166-2-lvl4': 'MY-04', 'postcode': '76400', 'country': 'Malaysia', 'country_code': 'my'}"
Bukit Tengah,Bukit Tengah,5.356241,100.429304,14000,,IBUKIT1,,"{'house_number': '22', 'road': 'Lorong Terinai 4', 'neighbourhood': 'Taman Indah', 'suburb': 'Bukit Tengah', 'city': 'Bukit Mertajam', 'district': 'Seberang Perai Tengah', 'state_district': 'Seberang Perai', 'state': 'Pulau Pinang', 'ISO3166-2-lvl4': 'MY-07', 'postcode': '14000', 'country': 'Malaysia', 'country_code': 'my'}"
Stadium Mini SMK Sri Permaisuri,Bandar Sri Permaisuri,3.106236,101.717917,51020,,IKAJAN6,,"{'amenity': 'SMK Seri Permaisuri', 'road': 'Stadium Mini SMK Sri Permaisuri', 'suburb': 'Bandar Sri Permaisuri', 'city': 'Kuala Lumpur', 'ISO3166-2-lvl4': 'MY-14', 'postcode': '51020', 'country': 'Malaysia', 'country_code': 'my'}"
Cheras,Cheras,3.007658,101.764646,43000,,IKAJAN6,,"{'neighbourhood': 'Taman Cheras Prima', 'suburb': 'Cheras', 'city': 'Majlis Perbandaran Kajang', 'district': 'Hulu Langat', 'state': 'Selangor', 'ISO3166-2-lvl4': 'MY-10', 'postcode': '43000', 'country': 'Malaysia', 'country_code': 'my'}"
Damansara Jaya,Damansara Jaya,3.126314,101.618439,47400,,IPETAL3,,"{'quarter': 'SS 22', 'suburb': 'Damansara Jaya', 'city': 'Petaling Jaya', 'district': 'Petaling', 'state': 'Selangor', 'ISO3166-2-lvl4': 'MY-10', 'postcode': '47400', 'country': 'Malaysia', 'country_code': 'my'}"
ILP Miri,Permyjaya,4.494791,114.043416,98100,,,,"{'amenity': 'Institut Latihan Perindustrian (ILP) Miri', 'house_number': 'Lot 3226, Blok 6,', 'road': 'Kuala Baram Bypass', 'suburb': 'Permyjaya', 'city': 'Miri', 'county': 'Miri', 'state': 'Sarawak', 'ISO3166-2-lvl4': 'MY-13', 'postcode': '98100', 'country': 'Malaysia', 'country_code': 'my'}"
Indera Mahkota Kuantan,Bandar Indera Mahkota,3.819217,103.29655,25200,,,,"{'amenity': 'Sekolah Kebangsaan Indera Mahkota', 'road': 'Lorong IM 2/71', 'residential': 'Taman MBSB', 'suburb': 'Bandar Indera Mahkota', 'village': 'Kampung Tiram', 'district': 'Kuantan', 'state': 'Pahang', 'ISO3166-2-lvl4': 'MY-06', 'postcode': '25200', 'country': 'Malaysia', 'country_code': 'my'}"
IPD Serian,Serian,1.17247,110.56807,,,,,"{'amenity': 'Ibu Pejabat Polis Daerah Serian', 'road': 'Jalan Bandar Serian', 'city': 'Serian', 'county': 'Serian', 'region': 'Bahagian Serian', 'state': 'Sarawak', 'ISO3166-2-lvl4': 'MY-13', 'country': 'Malaysia', 'country_code': 'my'}"
IPD Serian (MCAQM),Serian,1.17247,110.56807,,,,,"{'amenity': 'Ibu Pejabat Polis Daerah Serian', 'road': 'Jalan Bandar Serian', 'city': 'Serian', 'county': 'Serian', 'region': 'Bahagian Serian', 'state': 'Sarawak', 'ISO3166-2-lvl4': 'MY-13', 'country': 'Malaysia', 'country_code': 'my'}"
Jerantut,Jerantut,3.94836,102.366632,,,,,"{'amenity': 'SMK Jerantut', 'road': 'C9', 'residential': 'Jerantut', 'hamlet': 'Kampung Baru Sungai Jan', 'town': 'Jerantut', 'district': 'Jerantut', 'state': 'Pahang', 'ISO3166-2-lvl4': 'MY-06', 'country': 'Malaysia', 'country_code': 'my'}"
Johan Setia,Taman Setia,2.97975,101.48179,41200,,,,"{'neighbourhood': 'Taman Setia', 'city': 'Majlis Perbandaran Klang', 'district': 'Klang', 'state': 'Selangor', 'ISO3166-2-lvl4': 'MY-10', 'postcode': '41200', 'country': 'Malaysia', 'country_code': 'my'}"
Johan Setia (MCAQM),Taman Setia,2.97975,101.48179,41200,,,,"{'neighbourhood': 'Taman Setia', 'city': 'Majlis Perbandaran Klang', 'district': 'Klang', 'state': 'Selangor', 'ISO3166-2-lvl4': 'MY-10', 'postcode': '41200', 'country': 'Malaysia', 'country_code': 'my'}"
JOHAN SETIA KLANG (MCAQM),Taman Setia,2.97975,101.48179,41200,,,,"{'neighbourhood': 'Taman Setia', 'city': 'Majlis Perbandaran Klang', 'district': 'Klang', 'state': 'Selangor', 'ISO3166-2-lvl4': 'MY-10', 'postcode': '41200', 'country': 'Malaysia', 'country_code': 'my'}"
JOHAN SETIA (MCAQM),Taman Setia,2.97975,101.48179,41200,,,,"{'neighbourhood': 'Taman Setia', 'city': 'Majlis Perbandaran Klang', 'district': 'Klang', 'state': 'Selangor', 'ISO3166-2-lvl4': 'MY-10', 'postcode': '41200', 'country': 'Malaysia', 'country_code': 'my'}"
JOHAN SETIA,Taman Setia,2.97975,101.48179,41200,,,,"{'neighbourhood': 'Taman Setia', 'city': 'Majlis Perbandaran Klang', 'district': 'Klang', 'state': 'Selangor', 'ISO3166-2-lvl4': 'MY-10', 'postcode': '41200', 'country': 'Malaysia', 'country_code': 'my'}"
Johan Setia Klang (MCAQM),Taman Setia,2.97975,101.48179,41200,,,,"{'neighbourhood': 'Taman Setia', 'city': 'Majlis Perbandaran Klang', 'district': 'Klang', 'state': 'Selangor', 'ISO3166-2-lvl4': 'MY-10', 'postcode': '41200', 'country': 'Malaysia', 'country_code': 'my'}"
Johor Bahru,Johor Bahru,1.59889,103.680107,81400,,IJOHORBA4,,"{'city': 'Johor Bahru', 'district': 'Johor Bahru', 'region': 'Iskandar Malaysia', 'state': 'Johor', 'ISO3166-2-lvl4': 'MY-01', 'postcode': '81400', 'country': 'Malaysia', 'country_code': 'my'}"
Johor Bahru (MCAQM),Johor Bahru,1.59889,103.680107,81400,,,,
Kangar,Taman Embun,6.429922,100.211069,1000,,,,"{'neighbourhood': 'Taman Embun', 'city': 'Kangar', 'state': 'Perlis', 'ISO3166-2-lvl4': 'MY-09', 'postcode': '01000', 'country': 'Malaysia', 'country_code': 'my'}"
Kapit,Kapit,2.014498,112.92736,96800,,,,"{'city': 'Kapit', 'county': 'Kapit', 'state': 'Sarawak', 'ISO3166-2-lvl4': 'MY-13', 'postcode': '96800', 'country': 'Malaysia', 'country_code': 'my'}"
Kemaman,Kemaman,4.262121,103.425778,24000,,,,"{'amenity': 'Sekolah Menengah Bukit Kuang', 'road': 'Jalan Cempaka', 'suburb': 'Taman Kemaman', 'city': 'Chukai', 'county': 'Kemaman', 'state': 'Terengganu', 'ISO3166-2-lvl4': 'MY-11', 'postcode': '24000', 'country': 'Malaysia', 'country_code': 'my'}"
Keningau,Kampung Ria,5.339317,116.163658,88900,,,,"{'amenity': 'Sekolah Menengah Kebangsaan Gunsanad', 'road': 'Jalan Secondary School', 'hamlet': 'Kampung Ria', 'city': 'Keningau', 'county': 'Keningau', 'state': 'Sabah', 'ISO3166-2-lvl4': 'MY-12', 'postcode': '88900', 'country': 'Malaysia', 'country_code': 'my'}"
Kerteh Airport,Kemaman,4.5375,103.4266667,24300,WMKE,,,"{'aeroway': 'Lapangan Terbang Kerteh', 'road': 'T127', 'village': 'Kampung Pengkalan Ranggon', 'county': 'Kemaman', 'state': 'Terengganu', 'ISO3166-2-lvl4': 'MY-11', 'postcode': '24300', 'country': 'Malaysia', 'country_code': 'my'}"
Kimanis,Kimanis,5.538225,115.850556,,,,,"{'town': 'Bongawan', 'region': 'Papar', 'state': 'Sabah', 'ISO3166-2-lvl4': 'MY-12', 'country': 'Malaysia', 'country_code': 'my'}"
Klang,Pelabuhan Klang,3.014889,101.413111,42000,,,,"{'amenity': 'Klinik Kesihatan Pandamaran', 'road': 'Jalan Sentul', 'neighbourhood': 'Kampung Raja Uda', 'suburb': 'Pandamaran', 'town': 'Pelabuhan Klang', 'city': 'Majlis Perbandaran Klang', 'district': 'Klang', 'state': 'Selangor', 'ISO3166-2-lvl4': 'MY-10', 'postcode': '42000', 'country': 'Malaysia', 'country_code': 'my'}"
KLINIK DESA TEROI (MCAQM),Yan,5.8457834,100.4287388,8800,,,,"{'amenity': 'Klinik Desa Teroi', 'road': 'K146', 'village': 'Titi Serong', 'district': 'Yan', 'state': 'Kedah', 'ISO3166-2-lvl4': 'MY-02', 'postcode': '08800', 'country': 'Malaysia', 'country_code': 'my'}"
Kluang,Kluang,2.037882,103.312063,86000,,,,"{'city': 'Kluang', 'district': 'Kluang', 'state': 'Johor', 'ISO3166-2-lvl4': 'MY-01', 'postcode': '86000', 'country': 'Malaysia', 'country_code': 'my'}"
Komtar,Penang Road,5.414821,100.331087,10100,,IPENAN2,,"{'shop': 'Prangin Mall', 'house_number': '33', 'road': 'Jalan Doktor Lim Chwee Leong', 'retail': 'KOMTAR', 'city': 'Bandaraya George Town', 'district': 'Timur Laut', 'state': 'Pulau Pinang', 'ISO3166-2-lvl4': 'MY-07', 'postcode': '10100', 'country': 'Malaysia', 'country_code': 'my'}"
Kota Bahru,Kampung Redang,6.147431,102.249236,15400,,,,"{'neighbourhood': 'Taman Tanjung Chat', 'hamlet': 'Kampung Redang', 'city': 'Kota Bharu', 'district': 'Kota Bharu', 'state': 'Kelantan', 'ISO3166-2-lvl4': 'MY-03', 'postcode': '15400', 'country': 'Malaysia', 'country_code': 'my'}"
Kota Bharu,Kampung Redang,6.147431,102.249236,15400,,,,"{'neighbourhood': 'Taman Tanjung Chat', 'hamlet': 'Kampung Redang', 'city': 'Kota Bharu', 'district': 'Kota Bharu', 'state': 'Kelantan', 'ISO3166-2-lvl4': 'MY-03', 'postcode': '15400', 'country': 'Malaysia', 'country_code': 'my'}"
Kota Kinabalu,Putatan,5.89372,116.04327,88220,,,,"{'amenity': 'SMK PUTATAN', 'road': 'Jalan SMK Putatan', 'town': 'Putatan', 'county': 'Putatan', 'state': 'Sabah', 'ISO3166-2-lvl4': 'MY-12', 'postcode': '88220', 'country': 'Malaysia', 'country_code': 'my'}"
Kota Kinabalu (MCAQM),Asia City,5.9804,116.0735,88675,,,,"{'road': 'Jalan Sinsuran', 'city': 'Kota Kinabalu', 'district': 'Kota Kinabalu', 'state': 'Sabah', 'ISO3166-2-lvl4': 'MY-12', 'postcode': '88675', 'country': 'Malaysia', 'country_code': 'my'}"
Kota Kinabalu International Airport,Tanjung Aru,5.944722222,116.0586111,88858,WBKK,,,"{'neighbourhood': 'Aeropod Commercial Square', 'village': 'Tanjung Aru', 'district': 'Kota Kinabalu', 'state': 'Sabah', 'ISO3166-2-lvl4': 'MY-12', 'postcode': '88858', 'country': 'Malaysia', 'country_code': 'my'}"
Kota Tinggi,Bandar Penawar,1.564056,104.225306,81930,,,,"{'amenity': 'SMKA Bandar Penawar', 'road': 'Jalan Desaru - Pengerang', 'town': 'Bandar Penawar', 'district': 'Kota Tinggi', 'state': 'Johor', 'ISO3166-2-lvl4': 'MY-01', 'postcode': '81930', 'country': 'Malaysia', 'country_code': 'my'}"
Kuala Lumpur International Airport,Sepang,2.743333333,101.6980556,64000,WMKK,,,"{'aeroway': 'P1', 'road': 'Bas & Teksi', 'city': 'Sepang', 'state': 'Selangor', 'ISO3166-2-lvl4': 'MY-10', 'postcode': '64000', 'country': 'Malaysia', 'country_code': 'my'}"
Kuala Pangsun,Hulu Langat,3.203433,101.858035,,,IHULUL1,,"{'road': 'Jalan Hulu Langat', 'isolated_dwelling': 'Kampung Orang Asli Kuala Pangsun', 'city': 'Majlis Perbandaran Kajang', 'district': 'Hulu Langat', 'state': 'Selangor', 'ISO3166-2-lvl4': 'MY-10', 'country': 'Malaysia', 'country_code': 'my'}"
Kuala Perlis,Kuala Perlis,6.39999,100.138527,2000,,IKUALA18,,"{'residential': 'Kuala Perlis', 'town': 'Kuala Perlis', 'state': 'Perlis', 'ISO3166-2-lvl4': 'MY-09', 'postcode': '02000', 'country': 'Malaysia', 'country_code': 'my'}"
Kuala Selangor,Bandar Baru Kuala Selangor,3.321308,101.256242,45000,,,,"{'amenity': 'SMS Kuala Selangor', 'road': 'Jalan Stadium', 'neighbourhood': 'Bandar Baru Kuala Selangor', 'city': 'Kuala Selangor', 'district': 'Kuala Selangor', 'state': 'Selangor', 'ISO3166-2-lvl4': 'MY-10', 'postcode': '45000', 'country': 'Malaysia', 'country_code': 'my'}"
Kuala Terengganu,Kampung Tok Kaya,5.308094,103.120392,21000,,,,"{'amenity': 'Sekolah Kebangsaan Pusat Cabang Tiga', 'road': 'Jalan Kelantan', 'suburb': 'Kampung Tok Kaya', 'city': 'Kuala Terengganu', 'county': 'Kuala Terengganu', 'state': 'Terengganu', 'ISO3166-2-lvl4': 'MY-11', 'postcode': '21000', 'country': 'Malaysia', 'country_code': 'my'}"
Kuantan,Kuantan,3.895891,103.34027,26100,,IKUANT6,,"{'district': 'Kuantan', 'state': 'Pahang', 'ISO3166-2-lvl4': 'MY-06', 'postcode': '26100', 'country': 'Malaysia', 'country_code': 'my'}"
Kuching,Kuching,1.562229,110.388958,93000,,,,"{'city': 'Kuching', 'county': 'Kuching', 'region': 'Bahagian Kuching', 'state': 'Sarawak', 'ISO3166-2-lvl4': 'MY-13', 'postcode': '93000', 'country': 'Malaysia', 'country_code': 'my'}"
Kuching International Airport,Kota Sentosa,1.484722222,110.3377778,93722,WBGG,,,"{'aeroway': 'Hornbill Skyways', 'road': 'Jalan Lapangan Terbang', 'town': 'Kota Sentosa', 'county': 'Kuching', 'region': 'Bahagian Kuching', 'state': 'Sarawak', 'ISO3166-2-lvl4': 'MY-13', 'postcode': '93722', 'country': 'Malaysia', 'country_code': 'my'}"
Kudat Airport,Kudat,6.924166667,116.8308333,89050,WBKT,,,"{'suburb': 'Taman Seri Awana', 'city': 'Kudat', 'county': 'Kudat', 'state': 'Sabah', 'ISO3166-2-lvl4': 'MY-12', 'postcode': '89050', 'country': 'Malaysia', 'country_code': 'my'}"
Kulim,Kulim,5.401688,100.58968,9090,,,,"{'municipality': 'Pihak Berkuasa Tempatan Taman Perindustran Hi-tech Kulim', 'district': 'Kulim', 'state': 'Kedah', 'ISO3166-2-lvl4': 'MY-02', 'postcode': '09090', 'country': 'Malaysia', 'country_code': 'my'}"
Kulim Hi-Tech,Kulim,5.401688,100.58968,9090,,,,"{'municipality': 'Pihak Berkuasa Tempatan Taman Perindustran Hi-tech Kulim', 'district': 'Kulim', 'state': 'Kedah', 'ISO3166-2-lvl4': 'MY-02', 'postcode': '09090', 'country': 'Malaysia', 'country_code': 'my'}"
Labuan,Kampung Pantai,5.298107,115.232106,87000,,,,"{'town': 'Kampung Pantai', 'county': 'Labuan', 'state': 'Labuan', 'ISO3166-2-lvl4': 'MY-15', 'postcode': '87000', 'country': 'Malaysia', 'country_code': 'my'}"
Labuan Airport,Bandar Victoria,5.301666667,115.2483333,87007,WBKL,,,"{'aeroway': 'Lapangan Terbang Labuan', 'road': 'Jalan Tun Mustapha', 'city': 'Bandar Victoria', 'county': 'Labuan', 'state': 'Labuan', 'ISO3166-2-lvl4': 'MY-15', 'postcode': '87007', 'country': 'Malaysia', 'country_code': 'my'}"
Langkawi,Kuah,6.331539,99.85846,,,,,"{'road': 'Jalan Ayer Hangat', 'town': 'Kuah', 'district': 'Langkawi', 'state': 'Kedah', 'ISO3166-2-lvl4': 'MY-02', 'country': 'Malaysia', 'country_code': 'my'}"
Langkawi International Airport,Kampung Paya Mempelam,6.333333333,99.73333333,7000,WMKL,,,"{'road': 'Jalan Padang Wahid', 'village': 'Kampung Paya Mempelam', 'district': 'Langkawi', 'state': 'Kedah', 'ISO3166-2-lvl4': 'MY-02', 'postcode': '07000', 'country': 'Malaysia', 'country_code': 'my'}"
Larkin,Kampung Datok Onn Larkin,1.494625,103.735975,80350,,,,"{'amenity': 'Institut Pendidikan Guru Kampus Temenggong Ibrahim', 'road': 'Maktab Perguruan Temenggong Ibrahim', 'neighbourhood': 'Kampung Datok Onn Larkin', 'suburb': 'Larkin', 'city': 'Johor Bahru', 'district': 'Johor Bahru', 'region': 'Iskandar Malaysia', 'state': 'Johor', 'ISO3166-2-lvl4': 'MY-01', 'postcode': '80350', 'country': 'Malaysia', 'country_code': 'my'}"
Limbang,Limbang,4.758891,115.013667,98708,,,,"{'leisure': 'Kompleks Sukan', 'road': 'Lorong Limbang Sport Center 1', 'village': 'Kampung Cina', 'county': 'Limbang', 'region': 'Bahagian Limbang', 'state': 'Sarawak', 'ISO3166-2-lvl4': 'MY-13', 'postcode': '98708', 'country': 'Malaysia', 'country_code': 'my'}"
Madrasah An Nur Pekan Rembia Alor Gajah (MCAQM),Rembia,2.3313578,102.2079583,78000,,,,"{'quarter': 'Rembia', 'city': 'Alor Gajah', 'district': 'Alor Gajah', 'state': 'Melaka', 'ISO3166-2-lvl4': 'MY-04', 'postcode': '78000', 'country': 'Malaysia', 'country_code': 'my'}"
Malacca International Airport,Durian Tunggal,2.263055556,102.2525,75350,WMKM,,,"{'aeroway': 'Lapangan Terbang Antarabangsa Melaka', 'road': 'Jalan Angkasa Nuri 26', 'neighbourhood': 'Taman Angkasa Nuri', 'municipality': 'Majlis Perbandaran Hang Tuah Jaya', 'district': 'Melaka Tengah', 'state': 'Melaka', 'ISO3166-2-lvl4': 'MY-04', 'postcode': '75350', 'country': 'Malaysia', 'country_code': 'my'}"
Masjid Seri Sendayan (MCAQM),Bandar Seri Sendayan,2.6847617,101.8424253,71950,,,,"{'road': '1265', 'district': 'Seremban', 'state': 'Negeri Sembilan', 'ISO3166-2-lvl4': 'MY-05', 'postcode': '71950', 'country': 'Malaysia', 'country_code': 'my'}"
Mersing Airport,Mersing,2.383333333,103.8594444,86807,WMAU,,,"{'village': 'Kampung Sri Pantai', 'district': 'Mersing', 'state': 'Johor', 'ISO3166-2-lvl4': 'MY-01', 'postcode': '86807', 'country': 'Malaysia', 'country_code': 'my'}"
Minden,Gelugor,5.356211,100.30792,11700,,,,"{'amenity': 'Universiti Sains Malaysia', 'road': 'Persiaran Minden', 'residential': 'Minden Heights', 'suburb': 'Gelugor', 'district': 'Timur Laut', 'state': 'Pulau Pinang', 'ISO3166-2-lvl4': 'MY-07', 'postcode': '11700', 'country': 'Malaysia', 'country_code': 'my'}"
Miri,Piasau,4.424679,114.012426,98000,,,,"{'amenity': 'SMK Dato Permaisuri', 'road': 'Jalan Bulatan 1', 'neighbourhood': 'Piasau Jaya', 'suburb': 'Piasau', 'city': 'Miri', 'county': 'Miri', 'state': 'Sarawak', 'ISO3166-2-lvl4': 'MY-13', 'postcode': '98000', 'country': 'Malaysia', 'country_code': 'my'}"
Miri Airport,Jalan Airport,4.325277778,113.9883333,,WBGR,,,"{'aeroway': 'Lapangan Terbang Miri', 'road': 'Lorong 1', 'city': 'Miri', 'county': 'Miri', 'state': 'Sarawak', 'ISO3166-2-lvl4': 'MY-13', 'country': 'Malaysia', 'country_code': 'my'}"
Muallim,Muallim,3.76835,101.52598,35910,,ITANJO2,,"{'district': 'Muallim', 'state': 'Perak', 'ISO3166-2-lvl4': 'MY-08', 'postcode': '35910', 'country': 'Malaysia', 'country_code': 'my'}"
Muar,Taman Sungai Abong,2.0631,102.5849,84000,,,,"{'road': 'Jalan Jelawat 1', 'city': 'Muar', 'district': 'Muar', 'state': 'Johor', 'ISO3166-2-lvl4': 'MY-01', 'postcode': '84000', 'country': 'Malaysia', 'country_code': 'my'}"
Jalan Muar-Pagoh,Pagoh,2.139035,102.739549,84600,,IPAGOH1,,"{'road': 'Jalan Muar-Pagoh', 'district': 'Muar', 'state': 'Johor', 'ISO3166-2-lvl4': 'MY-01', 'postcode': '84600', 'country': 'Malaysia', 'country_code': 'my'}"
Mukah,Mukah,2.883238,112.019742,96400,,,,"{'road': 'Q477', 'city': 'Mukah', 'county': 'Mukah', 'region': 'Bahagian Mukah', 'state': 'Sarawak', 'ISO3166-2-lvl4': 'MY-13', 'postcode': '96400', 'country': 'Malaysia', 'country_code': 'my'}"
Nilai,Taman Semarak,2.821692,101.811486,71800,,,,"{'road': 'Jalan TS Utama 3', 'quarter': 'Taman Semarak', 'town': 'Nilai', 'district': 'Seremban', 'state': 'Negeri Sembilan', 'ISO3166-2-lvl4': 'MY-05', 'postcode': '71800', 'country': 'Malaysia', 'country_code': 'my'}"
Nilai Impian,Nilai Impian,2.842143,101.806365,71800,,INILAI8,,"{'suburb': 'Nilai Impian', 'district': 'Seremban', 'state': 'Negeri Sembilan', 'ISO3166-2-lvl4': 'MY-05', 'postcode': '71800', 'country': 'Malaysia', 'country_code': 'my'}"
Padang Besar,Padang Besar,6.657668,100.30957,2100,,IPADAN6,,"{'building': 'Globonus Padang Besar', 'road': '7', 'residential': 'Padang Besar', 'town': 'Padang Besar', 'state': 'Perlis', 'ISO3166-2-lvl4': 'MY-09', 'postcode': '02100', 'country': 'Malaysia', 'country_code': 'my'}"
Paka,Paka,4.598064,103.434819,23100,,,,"{'city': 'Dungun', 'state': 'Terengganu', 'ISO3166-2-lvl4': 'MY-11', 'postcode': '23100', 'country': 'Malaysia', 'country_code': 'my'}"
Pasir Gudang,Taman Mawar,1.470122,103.893456,81700,,,,"{'road': 'Jalan Mawar', 'neighbourhood': 'Taman Mawar', 'town': 'Masai', 'district': 'Johor Bahru', 'region': 'Iskandar Malaysia', 'state': 'Johor', 'ISO3166-2-lvl4': 'MY-01', 'postcode': '81700', 'country': 'Malaysia', 'country_code': 'my'}"
Pegoh Ipoh,Pegoh Ipoh,4.553336,101.080236,31650,,,,"{'amenity': 'Sekolah Kebangsaan Jalan Pegoh', 'road': 'Lorong Pegoh 4', 'neighbourhood': 'Taman Pengkalan Jaya', 'city': 'Ipoh', 'district': 'Kinta', 'state': 'Perak', 'ISO3166-2-lvl4': 'MY-08', 'postcode': '31650', 'country': 'Malaysia', 'country_code': 'my'}"
Pekan,Pekan,3.058157,103.17379,,,IPEKAN1,uv,"{'district': 'Pekan', 'state': 'Pahang', 'ISO3166-2-lvl4': 'MY-06', 'country': 'Malaysia', 'country_code': 'my'}"
Penang International Airport,Batu Maung,5.297222222,100.2766667,11900,WMKP,,,"{'aeroway': 'Lapangan Terbang Antarabangsa Pulau Pinang', 'road': 'Gerbong Batu Maung 1', 'neighbourhood': 'Taman Iping (Taman Batu Maung)', 'suburb': 'Batu Maung', 'town': 'Bayan Lepas', 'district': 'Barat Daya', 'state': 'Pulau Pinang', 'ISO3166-2-lvl4': 'MY-07', 'postcode': '11900', 'country': 'Malaysia', 'country_code': 'my'}"
Pengerang,Kampung Lepau,1.389489,104.149586,,,,,"{'road': 'Jalan Sebana Cove', 'hamlet': 'Kampung Lepau', 'city': 'Pengerang', 'district': 'Kota Tinggi', 'state': 'Johor', 'ISO3166-2-lvl4': 'MY-01', 'country': 'Malaysia', 'country_code': 'my'}"
Permyjaya Miri,Permyjaya,4.4544,114.0376,98107,,,,"{'road': 'Lorong 2-2', 'suburb': 'Permyjaya', 'city': 'Miri', 'county': 'Miri', 'state': 'Sarawak', 'ISO3166-2-lvl4': 'MY-13', 'postcode': '98107', 'country': 'Malaysia', 'country_code': 'my'}"
Petaling Jaya,Kampung Sungai Kayu Ara,3.133169,101.608011,47410,,,,"{'road': 'Lebuhraya Sprint', 'residential': 'Kampung Sungai Kayu Ara', 'city': 'Petaling Jaya', 'district': 'Petaling', 'state': 'Selangor', 'ISO3166-2-lvl4': 'MY-10', 'postcode': '47410', 'country': 'Malaysia', 'country_code': 'my'}"
Politeknik Kota Kinabalu,Kota Kinabalu Industrial Park,6.097122,116.166392,88450,,,,"{'amenity': 'Politeknik Kota Kinabalu', 'road': 'Jalan Politeknik', 'district': 'Kota Kinabalu', 'state': 'Sabah', 'ISO3166-2-lvl4': 'MY-12', 'postcode': '88450', 'country': 'Malaysia', 'country_code': 'my'}"
Politeknik Kota Kinabalu (MCAQM),Kota Kinabalu Industrial Park,6.097122,116.166392,88450,,,,"{'amenity': 'Politeknik Kota Kinabalu', 'road': 'Jalan Politeknik', 'district': 'Kota Kinabalu', 'state': 'Sabah', 'ISO3166-2-lvl4': 'MY-12', 'postcode': '88450', 'country': 'Malaysia', 'country_code': 'my'}"
Port Dickson,Port Dickson,2.515101,101.661907,71000,,ISELAN1,humidity,"{'city': 'Port Dickson', 'district': 'Port Dickson', 'state': 'Negeri Sembilan', 'ISO3166-2-lvl4': 'MY-05', 'postcode': '71000', 'country': 'Malaysia', 'country_code': 'my'}"
Taman Politeknik,Taman Politeknik,2.441383,101.866858,71050,,ISELAN1,,"{'road': 'Jalan Politeknik 4', 'neighbourhood': 'Taman Politeknik', 'city': 'Port Dickson', 'district': 'Port Dickson', 'state': 'Negeri Sembilan', 'ISO3166-2-lvl4': 'MY-05', 'postcode': '71050', 'country': 'Malaysia', 'country_code': 'my'}"
Presint 18,Presint 18,2.9196,101.696,62150,,,,"{'quarter': 'Presint 18', 'city': 'Putrajaya', 'state': 'Putrajaya', 'ISO3166-2-lvl4': 'MY-16', 'postcode': '62150', 'country': 'Malaysia', 'country_code': 'my'}"
Puchong,Taman Mutiara Puchong,3.034558,101.610851,47160,,IPUCHO4,,"{'road': 'Jalan TMP 6', 'neighbourhood': 'Taman Mutiara Puchong', 'town': 'Puchong', 'city': 'Subang Jaya', 'district': 'Petaling', 'state': 'Selangor', 'ISO3166-2-lvl4': 'MY-10', 'postcode': '47160', 'country': 'Malaysia', 'country_code': 'my'}"
Putrajaya,Presint 18,2.9196,101.696,62150,,,,"{'quarter': 'Presint 18', 'city': 'Putrajaya', 'state': 'Putrajaya', 'ISO3166-2-lvl4': 'MY-16', 'postcode': '62150', 'country': 'Malaysia', 'country_code': 'my'}"
Presint 11,Presint 11,2.959229,101.683647,62300,,IPUTRA2,,"{'road': 'Jalan P11A 1/12', 'quarter': 'Presint 11', 'city': 'Putrajaya', 'state': 'Putrajaya', 'ISO3166-2-lvl4': 'MY-16', 'postcode': '62300', 'country': 'Malaysia', 'country_code': 'my'}"
RMAF Butterworth,Sungai Puyu,5.466111111,100.3911111,13020,WMKB,,,"{'military': 'TUDM Butterworth', 'road': 'Jalan Kampung Benggali', 'suburb': 'Sungai Puyu', 'village': 'Permatang Tok Jaya', 'district': 'Seberang Perai Utara', 'state_district': 'Seberang Perai', 'state': 'Pulau Pinang', 'ISO3166-2-lvl4': 'MY-07', 'postcode': '13020', 'country': 'Malaysia', 'country_code': 'my'}"
Rompin,Kg Leban Chondong,2.926645,103.419198,,,,,"{'road': '3', 'village': 'Kg Leban Chondong', 'district': 'Rompin', 'state': 'Pahang', 'ISO3166-2-lvl4': 'MY-06', 'country': 'Malaysia', 'country_code': 'my'}"
Samalaju,Bintulu,3.537059,113.295168,,,,,"{'county': 'Bintulu', 'state': 'Sarawak', 'ISO3166-2-lvl4': 'MY-13', 'country': 'Malaysia', 'country_code': 'my'}"
Samarahan,Samarahan,1.454853,110.491505,,,,,"{'road': 'Jalan Residen', 'city': 'Kota Samarahan', 'county': 'Samarahan', 'region': 'Bahagian Samarahan', 'state': 'Sarawak', 'ISO3166-2-lvl4': 'MY-13', 'country': 'Malaysia', 'country_code': 'my'}"
Sandakan,Batu 3,5.864467,118.091089,90000,,,,"{'office': 'Jabatan Kerja Raya Sandakan', 'road': 'Jalan Utara', 'neighbourhood': 'Bandar Tong Huat', 'suburb': 'Batu 3', 'city': 'Sandakan District', 'state': 'Sabah', 'ISO3166-2-lvl4': 'MY-12', 'postcode': '90000', 'country': 'Malaysia', 'country_code': 'my'}"
Sandakan Airport,Sandakan,5.901666667,118.0486111,,WBKS,,,"{'city': 'Sandakan District', 'state': 'Sabah', 'ISO3166-2-lvl4': 'MY-12', 'country': 'Malaysia', 'country_code': 'my'}"
Sarikei,Jalan Sentral,2.132809,111.52287,96100,,,,"{'amenity': 'Old Place Cafe', 'road': 'Jalan Sentral', 'city': 'Sarikei', 'county': 'Sarikei', 'region': 'Bahagian Sarikei', 'state': 'Sarawak', 'ISO3166-2-lvl4': 'MY-13', 'postcode': '96100', 'country': 'Malaysia', 'country_code': 'my'}"
Saujana Utama,Bandar Saujana Utama,3.20031,101.491547,47000,,ISUNGAIB3,,"{'neighbourhood': 'SU2', 'suburb': 'Bandar Saujana Utama', 'district': 'Kuala Selangor', 'state': 'Selangor', 'ISO3166-2-lvl4': 'MY-10', 'postcode': '47000', 'country': 'Malaysia', 'country_code': 'my'}"
Saujana Villa,Saujana Villa,3.0049,101.804535,43000,,IKAJAN4,,"{'road': 'Jalan Prima Saujana 32', 'neighbourhood': 'Saujana Villa', 'city': 'Majlis Perbandaran Kajang', 'district': 'Hulu Langat', 'state': 'Selangor', 'ISO3166-2-lvl4': 'MY-10', 'postcode': '43000', 'country': 'Malaysia', 'country_code': 'my'}"
Seberang Jaya,Seberang Jaya,5.39817,100.403947,13700,,,,"{'amenity': 'SK Seberang Jaya 2', 'road': 'Lorong Tenggiri 8', 'suburb': 'Seberang Jaya', 'town': 'Permatang Pauh', 'district': 'Seberang Perai Tengah', 'state_district': 'Seberang Perai', 'state': 'Pulau Pinang', 'ISO3166-2-lvl4': 'MY-07', 'postcode': '13700', 'country': 'Malaysia', 'country_code': 'my'}"
Seberang Perai,Bukit Minyak,5.329358,100.443475,14000,,,,"{'amenity': 'Kolej Vokasional Seberang Perai', 'road': 'Tingkat Bukit Minyak 3', 'neighbourhood': 'Taman Bukit Minyak', 'suburb': 'Bukit Minyak', 'city': 'Bukit Mertajam', 'district': 'Seberang Perai Tengah', 'state_district': 'Seberang Perai', 'state': 'Pulau Pinang', 'ISO3166-2-lvl4': 'MY-07', 'postcode': '14000', 'country': 'Malaysia', 'country_code': 'my'}"
Segamat,Kampung Sedeng,2.493914,102.862694,85000,,,,"{'amenity': 'Klinik Kesihatan Bandar Putra Segamat', 'road': 'Jalan Genuang', 'neighbourhood': 'Taman Tan Leng Ann', 'hamlet': 'Kampung Sedeng', 'city': 'Segamat', 'district': 'Segamat', 'state': 'Johor', 'ISO3166-2-lvl4': 'MY-01', 'postcode': '85000', 'country': 'Malaysia', 'country_code': 'my'}"
Sek. Agama Taman Mawar Pasir Gudang (MCAQM),Taman Mawar,1.471945,103.89532,81700,,,,"{'amenity': 'Dewan Serbaguna Taman Mawar', 'road': 'Jalan Mawar 35', 'neighbourhood': 'Taman Mawar', 'town': 'Masai', 'district': 'Johor Bahru', 'region': 'Iskandar Malaysia', 'state': 'Johor', 'ISO3166-2-lvl4': 'MY-01', 'postcode': '81700', 'country': 'Malaysia', 'country_code': 'my'}"
Sematan Airport,Sematan,1.813611111,109.7627778,,WBGN,,,"{'aeroway': 'Sematan Airport', 'road': 'Pan Borneo Highway', 'town': 'Sematan', 'county': 'Lundu', 'region': 'Bahagian Kuching', 'state': 'Sarawak', 'ISO3166-2-lvl4': 'MY-13', 'country': 'Malaysia', 'country_code': 'my'}"
Semenyih,Taman Tasik Semenyih,2.939093,101.886086,43500,,ISEMEN3,,"{'road': 'Jalan Broga', 'neighbourhood': 'Taman Tasik Semenyih', 'city': 'Majlis Perbandaran Kajang', 'district': 'Hulu Langat', 'state': 'Selangor', 'ISO3166-2-lvl4': 'MY-10', 'postcode': '43500', 'country': 'Malaysia', 'country_code': 'my'}"
Senai International Airport,Bandar Putra Kulai,1.640555556,103.6702778,81000,WMKJ,,,"{'aeroway': 'Lapangan Terbang Antarabangsa Senai', 'road': 'Jalan Jumbo', 'suburb': 'Bandar Putra Kulai', 'city': 'Kulai', 'district': 'Kulai', 'region': 'Iskandar Malaysia', 'state': 'Johor', 'ISO3166-2-lvl4': 'MY-01', 'postcode': '81000', 'country': 'Malaysia', 'country_code': 'my'}"
Kampung Dato' Abu Bakar Baginda,Kampung Dato' Abu Bakar Baginda,2.951164,101.745807,43650,,IKAJAN7,,"{'hamlet': ""Kampung Dato' Abu Bakar Baginda"", 'city': 'Sepang', 'state': 'Selangor', 'ISO3166-2-lvl4': 'MY-10', 'postcode': '43650', 'country': 'Malaysia', 'country_code': 'my'}"
Sepang,Jalan Ayer Hitam,2.977911,101.733853,62502,,IKAJAN7,,"{'amenity': 'Library (TB)', 'road': 'Jalan Ayer Hitam', 'city': 'Sepang', 'state': 'Selangor', 'ISO3166-2-lvl4': 'MY-10', 'postcode': '62502', 'country': 'Malaysia', 'country_code': 'my'}"
Seremban,Ampangan,2.723381,101.968497,70400,,,,"{'amenity': 'Kolej Vokasional Ampangan', 'road': 'Jalan Gedong Lalang 8', 'neighbourhood': 'Gedong Lalang 162', 'suburb': 'Ampangan', 'city': 'Seremban', 'district': 'Seremban', 'state': 'Negeri Sembilan', 'ISO3166-2-lvl4': 'MY-05', 'postcode': '70400', 'country': 'Malaysia', 'country_code': 'my'}"
Seri Manjung,Seri Manjung,4.200344,100.663358,32040,,,,"{'office': 'Lembaga Kemajuan Ikan Malaysia Negeri Perak', 'road': 'Jalan Iskandar Shah', 'neighbourhood': 'Taman Samudera', 'town': 'Seri Manjung', 'district': 'Manjung', 'state': 'Perak', 'ISO3166-2-lvl4': 'MY-08', 'postcode': '32040', 'country': 'Malaysia', 'country_code': 'my'}"
Setia Indah,Petaling,3.100947,101.463403,40170,,ISHAHA7,,"{'residential': 'Indah 12', 'city': 'Shah Alam', 'district': 'Petaling', 'state': 'Selangor', 'ISO3166-2-lvl4': 'MY-10', 'postcode': '40170', 'country': 'Malaysia', 'country_code': 'my'}"
Shah Alam,Taman TTDI Jaya,3.104717,101.556222,40150,,,,"{'amenity': 'Sekolah Kebangsaan TTDI Jaya', 'road': 'Jalan Montfort', 'city': 'Shah Alam', 'district': 'Petaling', 'state': 'Selangor', 'ISO3166-2-lvl4': 'MY-10', 'postcode': '40150', 'country': 'Malaysia', 'country_code': 'my'}"
Persiaran Brooke,Sibu,2.314408,111.831916,96000,,,,"{'amenity': 'Ibu Pejabat Polis Daerah Sibu', 'road': 'Persiaran Brooke', 'city': 'Sibu', 'county': 'Sibu', 'region': 'Bahagian Sibu', 'state': 'Sarawak', 'ISO3166-2-lvl4': 'MY-13', 'postcode': '96000', 'country': 'Malaysia', 'country_code': 'my'}"
Sibu,Sibu,2.314408,111.831916,96000,,,,"{'amenity': 'Ibu Pejabat Polis Daerah Sibu', 'road': 'Persiaran Brooke', 'city': 'Sibu', 'county': 'Sibu', 'region': 'Bahagian Sibu', 'state': 'Sarawak', 'ISO3166-2-lvl4': 'MY-13', 'postcode': '96000', 'country': 'Malaysia', 'country_code': 'my'}"
Sibu Airport,Sibu Jaya,2.264166667,111.9825,,WBGS,,,"{'aeroway': 'Lapangan Terbang Sibu', 'road': 'Jalan Sanhill', 'town': 'Sibu Jaya', 'county': 'Sibu', 'region': 'Bahagian Sibu', 'state': 'Sarawak', 'ISO3166-2-lvl4': 'MY-13', 'country': 'Malaysia', 'country_code': 'my'}"
Simanggang Airport,Sabu,1.217000008,111.4499969,95000,WBGY,,,"{'suburb': 'Srijaya', 'town': 'Sabu', 'county': 'Sri Aman', 'region': 'Bahagian Sri Aman', 'state': 'Sarawak', 'ISO3166-2-lvl4': 'MY-13', 'postcode': '95000', 'country': 'Malaysia', 'country_code': 'my'}"
Sitiawan Airport,Pekan Sitiawan,4.216388889,100.6986111,32000,WMBA,,,"{'amenity': 'Perpustakaan Awam Sitiawan', 'road': 'Jalan Lumut', 'neighbourhood': 'Pekan Sitiawan', 'city': 'Sitiawan', 'district': 'Manjung', 'state': 'Perak', 'ISO3166-2-lvl4': 'MY-08', 'postcode': '32000', 'country': 'Malaysia', 'country_code': 'my'}"
SJK (T) LADANG BYRAM (MCAQM),Nibong Tebal,5.1914,100.4334,14300,,,,"{'road': 'Jalan Byram', 'district': 'Seberang Perai Selatan', 'state_district': 'Seberang Perai', 'state': 'Pulau Pinang', 'ISO3166-2-lvl4': 'MY-07', 'postcode': '14300', 'country': 'Malaysia', 'country_code': 'my'}"
SK Kampung Johan Setia (MCAQM),Taman Setia,2.97975,101.48179,41200,,,,"{'neighbourhood': 'Taman Setia', 'city': 'Majlis Perbandaran Klang', 'district': 'Klang', 'state': 'Selangor', 'ISO3166-2-lvl4': 'MY-10', 'postcode': '41200', 'country': 'Malaysia', 'country_code': 'my'}"
SK Kuala Baram 2 (MCAQM),Jalan Perlis,4.5505649,114.007616,,,,,"{'amenity': 'SK Kuala Baram II', 'road': 'Jalan Perlis', 'county': 'Miri', 'state': 'Sarawak', 'ISO3166-2-lvl4': 'MY-13', 'country': 'Malaysia', 'country_code': 'my'}"
SK Taman Pasir Putih Pasir Gudang (MCAQM),Taman Pasir Putih,1.47516997,103.9372998,81700,,,,"{'amenity': 'SK Taman Pasir Puteh', 'road': 'Jalan Selasih 4', 'neighbourhood': 'Taman Pasir Putih', 'city': 'Pasir Gudang', 'district': 'Johor Bahru', 'region': 'Iskandar Malaysia', 'state': 'Johor', 'ISO3166-2-lvl4': 'MY-01', 'postcode': '81700', 'country': 'Malaysia', 'country_code': 'my'}"
SMK Bukit Selambau (MCAQM),Bukit Selambau,5.6791693,100.6295196,,,,,"{'amenity': 'Sekolah Menengah Kebangsaan Bukit Selambau', 'road': 'K17', 'town': 'Bukit Selambau', 'district': 'Kuala Muda', 'state': 'Kedah', 'ISO3166-2-lvl4': 'MY-02', 'country': 'Malaysia', 'country_code': 'my'}"
SMK Tg Puteri Resort (MCAQM),Taman Tanjung Puteri,1.4584928,103.9379466,81700,,,,"{'amenity': 'SMK Tanjung Puteri Resort', 'road': 'Jalan Kelisa', 'neighbourhood': 'Taman Tanjung Puteri', 'city': 'Pasir Gudang', 'district': 'Johor Bahru', 'region': 'Iskandar Malaysia', 'state': 'Johor', 'ISO3166-2-lvl4': 'MY-01', 'postcode': '81700', 'country': 'Malaysia', 'country_code': 'my'}"
Sri Aman,Sri Aman,1.219656,111.464792,95000,,,,"{'suburb': 'Srijaya', 'city': 'Sri Aman', 'county': 'Sri Aman', 'region': 'Bahagian Sri Aman', 'state': 'Sarawak', 'ISO3166-2-lvl4': 'MY-13', 'postcode': '95000', 'country': 'Malaysia', 'country_code': 'my'}"
Sri Aman Heights,Sri Aman Heights,3.214151,101.593764,47830,,ISUNGA3,,"{'road': 'Jalan SA 5', 'neighbourhood': 'Sri Aman Heights', 'city': 'Majlis Perbandaran Selayang', 'district': 'Gombak', 'state': 'Selangor', 'ISO3166-2-lvl4': 'MY-10', 'postcode': '47830', 'country': 'Malaysia', 'country_code': 'my'}"
Sultan Abdul Aziz Shah Airport,Petaling,3.131111111,101.5480556,40150,WMSA,,,"{'aeroway': 'Lapangan Terbang Sultan Abdul Aziz Shah', 'road': 'Jalan U8/72', 'city': 'Shah Alam', 'district': 'Petaling', 'state': 'Selangor', 'ISO3166-2-lvl4': 'MY-10', 'postcode': '40150', 'country': 'Malaysia', 'country_code': 'my'}"
Sultan Abdul Halim Airport,Taman Desa Mutiara,6.194444444,100.4008333,6020,WMKA,,,"{'amenity': 'Airport Fire Rescue Services', 'road': 'Lebuhraya Darul Aman', 'neighbourhood': 'Taman Desa Mutiara', 'village': 'Kampung Alor Ganu', 'district': 'Kota Setar', 'state': 'Kedah', 'ISO3166-2-lvl4': 'MY-02', 'postcode': '06020', 'country': 'Malaysia', 'country_code': 'my'}"
Sultan Azlan Shah Airport,Taman Raja Ekram,4.569166667,101.0930556,31650,WMKI,,,"{'aeroway': 'Lapangan Terbang Sultan Azlan Shah', 'road': 'Persiaran Lapangan 1/2', 'neighbourhood': 'Taman Raja Ekram', 'city': 'Ipoh', 'district': 'Kinta', 'state': 'Perak', 'ISO3166-2-lvl4': 'MY-08', 'postcode': '31650', 'country': 'Malaysia', 'country_code': 'my'}"
Sultan Haji Ahmad Shah Airport,Kuantan,3.769722222,103.2094444,26070,WMKD,,,"{'aeroway': 'Lapangan Terbang Sultan Haji Ahmad Shah', 'road': 'Pandan Perdana 6/7', 'district': 'Kuantan', 'state': 'Pahang', 'ISO3166-2-lvl4': 'MY-06', 'postcode': '26070', 'country': 'Malaysia', 'country_code': 'my'}"
Sultan Ismail Petra Airport,Sabak,6.166111111,102.2925,16100,WMKC,,,"{'aeroway': 'Lapangan Terbang Sultan Ismail Petra', 'road': 'Jalan Tok Guru', 'quarter': 'Sabak', 'district': 'Kota Bharu', 'state': 'Kelantan', 'ISO3166-2-lvl4': 'MY-03', 'postcode': '16100', 'country': 'Malaysia', 'country_code': 'my'}"
Sultan Mahmud Airport,Kuala Nerus,5.048055556,103.1047222,21800,WMKN,,,"{'state': 'Terengganu', 'ISO3166-2-lvl4': 'MY-11', 'postcode': '21800', 'country': 'Malaysia', 'country_code': 'my'}"
Kuala Nerus (MCAQM),Kuala Nerus,5.364860,103.104591,21800,,,,
Kuala Dungun (MCAQM),Dungun,4.780870,103.394058,21800,,,,
Sungai Petani,Taman Nilam,5.629631,100.467771,8600,,,,"{'amenity': 'Sekolah Menengah Kebangsaan Tunku Ismail', 'road': 'Lorong Nilam 2/4', 'neighbourhood': 'Taman Nilam', 'city': 'Sungai Petani', 'district': 'Kuala Muda', 'state': 'Kedah', 'ISO3166-2-lvl4': 'MY-02', 'postcode': '08600', 'country': 'Malaysia', 'country_code': 'my'}"
Sungai Ruan,Sungai Ruan,3.807348,101.940577,27500,,IRAUB2,,"{'residential': 'Sungai Ruan', 'village': 'Sungai Ruan', 'district': 'Raub', 'state': 'Pahang', 'ISO3166-2-lvl4': 'MY-06', 'postcode': '27500', 'country': 'Malaysia', 'country_code': 'my'}"
Taiping,Kampung Pak Dollah,4.89885,100.679106,34600,,,,"{'road': 'Jalan Kamunting Lama', 'industrial': 'Kawasan Perindustrian Kamunting', 'hamlet': 'Kampung Pak Dollah', 'city': 'Taiping', 'district': 'Larut, Matang dan Selama', 'state': 'Perak', 'ISO3166-2-lvl4': 'MY-08', 'postcode': '34600', 'country': 'Malaysia', 'country_code': 'my'}"
Taman Eng Ann,Taman Eng Ann,3.053294,101.452904,41000,,ISELANGO11,,"{'road': 'Lorong Sireh', 'neighbourhood': 'Taman Eng Ann', 'city': 'Majlis Perbandaran Klang', 'district': 'Klang', 'state': 'Selangor', 'ISO3166-2-lvl4': 'MY-10', 'postcode': '41000', 'country': 'Malaysia', 'country_code': 'my'}"
Taman Pudu Ulu (MCAQM),Pudu Ulu,3.122784,101.73094,51500,,,,"{'building': 'Parc 3', 'road': 'Jalan Pudu Perdana', 'quarter': 'Pudu Ulu', 'suburb': 'Cheras', 'city': 'Kuala Lumpur', 'ISO3166-2-lvl4': 'MY-14', 'postcode': '51500', 'country': 'Malaysia', 'country_code': 'my'}"
Tanah Merah,Tanah Merah,5.811172,102.1345,17500,,,,"{'amenity': 'SMK Tanah Merah 1', 'road': 'Jalan Sultan Ismail Petra', 'town': 'Tanah Merah', 'district': 'Tanah Merah', 'state': 'Kelantan', 'ISO3166-2-lvl4': 'MY-03', 'postcode': '17500', 'country': 'Malaysia', 'country_code': 'my'}"
Jalan Muar-Segamat,Sime Darby Plantation Ladang Tangkak,2.294794,102.571595,84020,,ITANGK1,,"{'road': 'Jalan Muar-Segamat', 'hamlet': 'Sime Darby Plantation Ladang Tangkak', 'district': 'Tangkak', 'state': 'Johor', 'ISO3166-2-lvl4': 'MY-01', 'postcode': '84020', 'country': 'Malaysia', 'country_code': 'my'}"
Kampung Payamas,Tangkak,2.319756,102.518743,84900,,ITANGK1,,"{'road': 'J145', 'neighbourhood': 'Taman Indah / Permata', 'hamlet': 'Kampung Payamas', 'town': 'Tangkak', 'district': 'Tangkak', 'state': 'Johor', 'ISO3166-2-lvl4': 'MY-01', 'postcode': '84900', 'country': 'Malaysia', 'country_code': 'my'}"
Tangkak,Tangkak,2.319756,102.518743,84900,,ITANGK1,,"{'road': 'J145', 'neighbourhood': 'Taman Indah / Permata', 'hamlet': 'Kampung Payamas', 'town': 'Tangkak', 'district': 'Tangkak', 'state': 'Johor', 'ISO3166-2-lvl4': 'MY-01', 'postcode': '84900', 'country': 'Malaysia', 'country_code': 'my'}"
Tanjung Bungah,Tanjung Bungah,5.462463,100.299668,11200,,IPENAN3,,"{'building': 'El Nitsjo (Jho Low house)', 'house_number': '69', 'road': 'Tanjung Bungah Park', 'neighbourhood': 'Tanjung Bungah Park', 'suburb': 'Tanjung Bungah', 'district': 'Timur Laut', 'state': 'Pulau Pinang', 'ISO3166-2-lvl4': 'MY-07', 'postcode': '11200', 'country': 'Malaysia', 'country_code': 'my'}"
Tanjung Malim,Tanjong Malim,3.687758,101.524494,35900,,,,"{'amenity': 'Klinik Kesihatan Tanjung Malim', 'road': ""Persiaran Dato' Junus Wahid"", 'town': 'Tanjong Malim', 'district': 'Muallim', 'state': 'Perak', 'ISO3166-2-lvl4': 'MY-08', 'postcode': '35900', 'country': 'Malaysia', 'country_code': 'my'}"
Tasek Ipoh,Tasek Ipoh,4.629444,101.11665,31400,,,,"{'amenity': 'Sekolah Menengah Kebangsaan Jalan Tasek', 'road': 'Jalan Sultan Azlan Shah', 'neighbourhood': 'Taman Seri Dermawan', 'suburb': 'Medan Ipoh', 'city': 'Ipoh', 'district': 'Kinta', 'state': 'Perak', 'ISO3166-2-lvl4': 'MY-08', 'postcode': '31400', 'country': 'Malaysia', 'country_code': 'my'}"
Tawau,Tawau,4.249786,117.935864,91007,,,,"{'city': 'Tawau', 'county': 'Tawau', 'state': 'Sabah', 'ISO3166-2-lvl4': 'MY-12', 'postcode': '91007', 'country': 'Malaysia', 'country_code': 'my'}"
Tawau Airport,Tawau,4.313333333,118.1219444,,WBKW,,,"{'aeroway': 'Lapangan Terbang Tawau', 'road': 'A5', 'suburb': 'Taman Sawit', 'village': 'Kg. Balung', 'county': 'Tawau', 'state': 'Sabah', 'ISO3166-2-lvl4': 'MY-12', 'country': 'Malaysia', 'country_code': 'my'}"
Technology PP Industries(Norhern) Sdn Bhd (MCAQM),Amanjaya Zon Anggerik,5.646248,100.5329773,8000,,,,"{'road': 'K677', 'neighbourhood': 'Amanjaya Zon Anggerik', 'city': 'Sungai Petani', 'district': 'Kuala Muda', 'state': 'Kedah', 'ISO3166-2-lvl4': 'MY-02', 'postcode': '08000', 'country': 'Malaysia', 'country_code': 'my'}"
Kampung Tebing Tinggi,Kampung Tebing Tinggi,3.396606,102.424514,,,ITEMER1,,"{'hamlet': 'Kampung Tebing Tinggi', 'city': 'Temerloh', 'district': 'Temerloh', 'state': 'Pahang', 'ISO3166-2-lvl4': 'MY-06', 'country': 'Malaysia', 'country_code': 'my'}"
Temerloh,Songsang,3.471603,102.376406,28000,,,,"{'road': 'Jalan Semantan Indah', 'suburb': 'Songsang', 'village': 'Kampung Gantok', 'district': 'Temerloh', 'state': 'Pahang', 'ISO3166-2-lvl4': 'MY-06', 'postcode': '28000', 'country': 'Malaysia', 'country_code': 'my'}"
Jalan Sungai Buah Luar,Kampung Sungai Buah,2.892757,101.756045,63450,,IDENGK2,,"{'road': 'Jalan Sungai Buah Luar', 'hamlet': 'Kampung Sungai Buah', 'city': 'Sepang', 'state': 'Selangor', 'ISO3166-2-lvl4': 'MY-10', 'postcode': '63450', 'country': 'Malaysia', 'country_code': 'my'}"
Laman Isora,Nilai Impian,2.841943,101.802068,71800,,INILAI4,,"{'road': 'Jalan Isora 4', 'neighbourhood': 'Laman Isora', 'suburb': 'Nilai Impian', 'district': 'Seremban', 'state': 'Negeri Sembilan', 'ISO3166-2-lvl4': 'MY-05', 'postcode': '71800', 'country': 'Malaysia', 'country_code': 'my'}"
Bukit Gita Bayu,Gita Bayu,3.008224,101.73138,43400,,ISERIK8,,"{'neighbourhood': 'Gita Bayu', 'city': 'Majlis Perbandaran Kajang', 'district': 'Hulu Langat', 'state': 'Selangor', 'ISO3166-2-lvl4': 'MY-10', 'postcode': '43400', 'country': 'Malaysia', 'country_code': 'my'}"
Taman Esplanad,Bukit Jalil,3.060738,101.681036,57000,,IKUALA28,,"{'road': 'Jalan Jalil Perkasa 19', 'neighbourhood': 'Taman Esplanad', 'suburb': 'Bukit Jalil', 'city': 'Kuala Lumpur', 'ISO3166-2-lvl4': 'MY-14', 'postcode': '57000', 'country': 'Malaysia', 'country_code': 'my'}"
Encorp Cahaya Alam,Encorp Cahaya Alam,3.087482,101.488917,40450,,ISHAHA4,,"{'road': 'Jalan Selasih U12/21', 'neighbourhood': 'Encorp Cahaya Alam', 'quarter': 'Seksyen U12', 'city': 'Shah Alam', 'district': 'Petaling', 'state': 'Selangor', 'ISO3166-2-lvl4': 'MY-10', 'postcode': '40450', 'country': 'Malaysia', 'country_code': 'my'}"
Jalan Besar Cameron Highlands,Brinchang,4.515281,101.428466,39100,,IBRINC1,,"{'road': 'Jalan Besar Cameron Highlands', 'suburb': 'Brinchang', 'town': 'Cameron Highlands', 'district': 'Cameron Highlands', 'state': 'Pahang', 'ISO3166-2-lvl4': 'MY-06', 'postcode': '39100', 'country': 'Malaysia', 'country_code': 'my'}"
Lebuhraya Timur-Barat Kedua,Lojing,4.733746,101.643561,,,IGUAMU4,,"{'road': 'Lebuhraya Timur-Barat Kedua', 'district': 'Lojing', 'state': 'Kelantan', 'ISO3166-2-lvl4': 'MY-03', 'country': 'Malaysia', 'country_code': 'my'}"
Taman Perumahan Awam 2,Kampung Permatang Pasir,5.13825,100.507162,34950,,IBANDA27,,"{'neighbourhood': 'Taman Perumahan Awam 2', 'hamlet': 'Kampung Permatang Pasir', 'town': 'Bandar Baharu', 'district': 'Bandar Baharu', 'state': 'Kedah', 'ISO3166-2-lvl4': 'MY-02', 'postcode': '34950', 'country': 'Malaysia', 'country_code': 'my'}"
Pinang Tunggal,Bandar Puteri Jaya,5.594814,100.536172,,,ISUNGA4,,"{'suburb': 'Bandar Puteri Jaya', 'city': 'Sungai Petani', 'district': 'Kuala Muda', 'state': 'Kedah', 'ISO3166-2-lvl4': 'MY-02', 'country': 'Malaysia', 'country_code': 'my'}"
Kampung Baru Kulai,Taman Kulai Besar,1.654704,103.602386,81000,,IKULAI5,,"{'neighbourhood': 'Kampung Baru Kulai', 'city': 'Kulai', 'district': 'Kulai', 'region': 'Iskandar Malaysia', 'state': 'Johor', 'ISO3166-2-lvl4': 'MY-01', 'postcode': '81000', 'country': 'Malaysia', 'country_code': 'my'}"
Taman Matang Jaya,Petra Jaya,1.56751,110.296726,93000,,IKUCHI6,,"{'suburb': 'Petra Jaya', 'city': 'Kuching', 'county': 'Kuching', 'region': 'Bahagian Kuching', 'state': 'Sarawak', 'ISO3166-2-lvl4': 'MY-13', 'postcode': '93000', 'country': 'Malaysia', 'country_code': 'my'}"
Demak Industrial Park Phase,Sejingkat,1.598726,110.453328,,,IKUCHI10,,"{'town': 'Sejingkat', 'county': 'Kuching', 'region': 'Bahagian Kuching', 'state': 'Sarawak', 'ISO3166-2-lvl4': 'MY-13', 'country': 'Malaysia', 'country_code': 'my'}"
Pekan Sibu,Pekan Sibu,2.264232,111.84428,96000,,ISIBU11,,"{'city': 'Sibu', 'county': 'Sibu', 'region': 'Bahagian Sibu', 'state': 'Sarawak', 'ISO3166-2-lvl4': 'MY-13', 'postcode': '96000', 'country': 'Malaysia', 'country_code': 'my'}"
Kampung Sugon,Subis,3.521905,113.753609,,,INIAH2,,"{'county': 'Subis', 'region': 'Bahagian Miri', 'state': 'Sarawak', 'ISO3166-2-lvl4': 'MY-13', 'country': 'Malaysia', 'country_code': 'my'}"
Jalan Lama Kota Kinabalu-Papar,Taman Seri Alam,5.708372,115.95534,89608,,IPAPAR3,,"{'road': 'Jalan Lama Kota Kinabalu-Papar', 'neighbourhood': 'Taman Seri Alam', 'town': 'Papar', 'region': 'Papar', 'state_district': 'West Coast Division', 'state': 'Sabah', 'ISO3166-2-lvl4': 'MY-12', 'postcode': '89608', 'country': 'Malaysia', 'country_code': 'my'}"
Tamparuli,Tamparuli,6.128676,116.256661,89257,,ITAMPA3,,"{'town': 'Tamparuli', 'county': 'Tuaran', 'state_district': 'West Coast Division', 'state': 'Sabah', 'ISO3166-2-lvl4': 'MY-12', 'postcode': '89257', 'country': 'Malaysia', 'country_code': 'my'}"
Jalan Kampung Soronsob,Kampung Tambulaung,6.226784,116.452015,89159,,IKOTAB5,,"{'road': 'Jalan Kampung Soronsob', 'village': 'Kampung Tambulaung', 'county': 'Kota Belud', 'state_district': 'West Coast Division', 'state': 'Sabah', 'ISO3166-2-lvl4': 'MY-12', 'postcode': '89159', 'country': 'Malaysia', 'country_code': 'my'}"
Kampung Tiampus,Tegupeh,6.313231,117.408073,,,IBELURAN3,,"{'village': 'Kampung Tiampus', 'county': 'Beluran', 'region': 'Sandakan Division', 'state': 'Sabah', 'ISO3166-2-lvl4': 'MY-12', 'country': 'Malaysia', 'country_code': 'my'}"
Sungai Sapi,Sungai Sapi,5.720743,117.36956,,,IBELURAN2,,"{'county': 'Telupid', 'region': 'Sandakan Division', 'state': 'Sabah', 'ISO3166-2-lvl4': 'MY-12', 'country': 'Malaysia', 'country_code': 'my'}"
Jalan Sumber Alam,Petra Jaya,1.612769,110.335581,93000,,IKUCHI7,,"{'suburb': 'Petra Jaya', 'city': 'Kuching', 'county': 'Kuching', 'region': 'Bahagian Kuching', 'state': 'Sarawak', 'ISO3166-2-lvl4': 'MY-13', 'postcode': '93000', 'country': 'Malaysia', 'country_code': 'my'}"
Jalan Teras-Ladang Sempam,Teras,3.76358,101.79232,27600,,IRAUB3,,"{'district': 'Raub', 'state': 'Pahang', 'ISO3166-2-lvl4': 'MY-06', 'postcode': '27670', 'country': 'Malaysia', 'country_code': 'my'}"
Bunga,Jerantut,4.59549,102.60979,,,IJERAN4,,"{'district': 'Jerantut', 'state': 'Pahang', 'ISO3166-2-lvl4': 'MY-06', 'country': 'Malaysia', 'country_code': 'my'}"
Taman Seri Mengkuang,Kuala Selangor,3.36883,101.25723,,,IKUALA30,,"{'neighbourhood': 'Taman Seri Mengkuang', 'city': 'Kuala Selangor', 'district': 'Kuala Selangor', 'state': 'Selangor', 'ISO3166-2-lvl4': 'MY-10', 'country': 'Malaysia', 'country_code': 'my'}"
Kampung Sungai Sekiah,Muallim,3.75117,101.46303,35950,,IBEHRA1,,"{'road': 'Lebuhraya Behrang-Tanjung Malim', 'neighbourhood': 'Kampung Sungai Sekiah', 'village': 'Kampung Behrang Ulu', 'district': 'Muallim', 'state': 'Perak', 'ISO3166-2-lvl4': 'MY-08', 'postcode': '35950', 'country': 'Malaysia', 'country_code': 'my'}"
Kampung Kubang Buaya,Kuantan,3.81784,103.35629,25250,,IKUANT7,,"{'suburb': 'Kampung Kubang Buaya', 'city': 'Kuantan', 'district': 'Kuantan', 'state': 'Pahang', 'ISO3166-2-lvl4': 'MY-06', 'postcode': '25250', 'country': 'Malaysia', 'country_code': 'my'}"
Country Heights,Kajang,2.99574,101.73563,43400,,IKAJAN2,,"{'road': 'Jalan Cinta Alam', 'neighbourhood': 'Country Heights', 'city': 'Majlis Perbandaran Kajang', 'district': 'Hulu Langat', 'state': 'Selangor', 'ISO3166-2-lvl4': 'MY-10', 'postcode': '43400', 'country': 'Malaysia', 'country_code': 'my'}"
Kampung Sungai Klau,Raub,3.7475,101.97482,27630,,IRAUB4,,"{'suburb': 'Kampung Sungai Klau', 'district': 'Raub', 'state': 'Pahang', 'ISO3166-2-lvl4': 'MY-06', 'postcode': '27630', 'country': 'Malaysia', 'country_code': 'my'}"
Tringkap,Cameron Highlands,4.50874,101.44325,39100,,IBRINC2,,"{'suburb': 'Tringkap', 'town': 'Cameron Highlands', 'district': 'Cameron Highlands', 'state': 'Pahang', 'ISO3166-2-lvl4': 'MY-06', 'postcode': '39100', 'country': 'Malaysia', 'country_code': 'my'}"
Bandar Bukit Tinggi,Klang,2.97183,101.4605,41200,,IKLANG3,,"{'road': 'Jalan Jed 4', 'quarter': 'Bandar Parklands (Bandar Bukit Tinggi 3)', 'suburb': 'Bandar Bukit Tinggi', 'city': 'Bandaraya Klang', 'district': 'Klang', 'state': 'Selangor', 'ISO3166-2-lvl4': 'MY-10', 'postcode': '41200', 'country': 'Malaysia', 'country_code': 'my'}"
Kampung Dato' Abu Bakar Baginda,Sepang,2.95116,101.74581,43650,,IKAJAN12,,"{'hamlet': ""Kampung Dato' Abu Bakar Baginda"", 'city': 'Sepang', 'state': 'Selangor', 'ISO3166-2-lvl4': 'MY-10', 'postcode': '43650', 'country': 'Malaysia', 'country_code': 'my'}"
Ayer Hitam,Batu Pahat,2.0134,103.22502,,,IAYERH4,,"{'district': 'Batu Pahat', 'state': 'Johor', 'ISO3166-2-lvl4': 'MY-01', 'country': 'Malaysia', 'country_code': 'my'}"
Teluk Kemang,Port Dickson,2.44524,101.85444,71050,,INEGER3,,"{'man_made': 'Kompleks Baitul Hilal', 'road': 'Jalan Pantai', 'neighbourhood': 'Rumah Rakyat Teluk Kemang', 'suburb': 'Teluk Kemang', 'city': 'Port Dickson', 'district': 'Port Dickson', 'state': 'Negeri Sembilan', 'ISO3166-2-lvl4': 'MY-05', 'postcode': '71050', 'country': 'Malaysia', 'country_code': 'my'}"
Tangkak,Tangkak,2.31561,102.51706,,,ITANGK2,,"{'district': 'Tangkak', 'state': 'Johor', 'ISO3166-2-lvl4': 'MY-01', 'country': 'Malaysia', 'country_code': 'my'}"
Taman Bertam Setia,Melaka Tengah,2.30131,102.18882,75260,,IMALAC33,,"{'neighbourhood': 'Taman Bertam Setia', 'district': 'Melaka Tengah', 'state': 'Melaka', 'ISO3166-2-lvl4': 'MY-04', 'postcode': '75260', 'country': 'Malaysia', 'country_code': 'my'}"
Kampung Baru Kulai,Kulai,1.65527,103.6025,81000,,IKULAI10,,"{'neighbourhood': 'Kampung Baru Kulai', 'city': 'Kulai', 'district': 'Kulai', 'state': 'Johor', 'ISO3166-2-lvl4': 'MY-01', 'postcode': '81000', 'country': 'Malaysia', 'country_code': 'my'}"
Pekan Sibu,Sibu,2.33091,111.85222,96000,,ISIBU12,,"{'city': 'Sibu', 'county': 'Sibu', 'region': 'Bahagian Sibu', 'state': 'Sarawak', 'ISO3166-2-lvl4': 'MY-13', 'postcode': '96000', 'country': 'Malaysia', 'country_code': 'my'}"
Samarahan,Samarahan,1.46705,110.44777,94300,,IKOTAS4,,"{'road': 'Jalan Belian', 'village': 'Kampung Melaban', 'county': 'Samarahan', 'region': 'Bahagian Samarahan', 'state': 'Sarawak', 'ISO3166-2-lvl4': 'MY-13', 'postcode': '94300', 'country': 'Malaysia', 'country_code': 'my'}"
Kampung Pantai,Labuan,5.31906,115.24284,87000,,ILABUA2,,"{'town': 'Kampung Pantai', 'county': 'Labuan', 'state': 'Labuan', 'ISO3166-2-lvl4': 'MY-15', 'postcode': '87000', 'country': 'Malaysia', 'country_code': 'my'}"
Tanjong Bungah,George Town,5.46441,100.30162,11200,,IPENAN4,,"{'tourism': 'Mercure Penang Beach', 'house_number': '505', 'road': 'Jalan Tanjung Bungah', 'suburb': 'Tanjong Bungah', 'district': 'Timur Laut', 'city': 'George Town', 'state': 'Pulau Pinang', 'ISO3166-2-lvl4': 'MY-07', 'postcode': '11200', 'country': 'Malaysia', 'country_code': 'my'}"
Selama bintang,Selama,5.3514,100.84895,,,IRANTA10,,"{'district': 'Kulim', 'state': 'Kedah', 'ISO3166-2-lvl4': 'MY-02', 'country': 'Malaysia', 'country_code': 'my'}"
"Larut, Matang dan Selama",Selama,5.26393,100.87835,,,IRANTA13,,"{'municipality': 'Selama', 'district': 'Larut, Matang dan Selama', 'state': 'Perak', 'ISO3166-2-lvl4': 'MY-08', 'country': 'Malaysia', 'country_code': 'my'}"
Asam Kumbang,Taiping,4.86042,100.73221,34000,,ITAIPI2,,"{'road': 'Jalan Timur', 'neighbourhood': 'Regat Muzaffar Shah', 'suburb': 'Asam Kumbang', 'city': 'Taiping', 'district': 'Larut, Matang dan Selama', 'state': 'Perak', 'ISO3166-2-lvl4': 'MY-08', 'postcode': '34000', 'country': 'Malaysia', 'country_code': 'my'}"
Cheras,Kuala Lumpur,3.05908,101.74822,56000,,ICHERAS7,,"{'road': 'Jalan 31/154', 'neighbourhood': 'Taman Bukit Anggerik', 'suburb': 'Cheras', 'city': 'Kuala Lumpur', 'ISO3166-2-lvl4': 'MY-14', 'postcode': '56000', 'country': 'Malaysia', 'country_code': 'my'}"
Kayu Ara Pasong,Kulai,1.65905,103.49144,,,IKULAI13,,"{'district': 'Kulai', 'state': 'Johor', 'ISO3166-2-lvl4': 'MY-01', 'country': 'Malaysia', 'country_code': 'my'}"